OBJECT_NAME,OBJECT_ID,EPOCH,MEAN_MOTION,ECCENTRICITY,INCLINATION,RA_OF_ASC_NODE,ARG_OF_PERICENTER,MEAN_ANOMALY,EPHEMERIS_TYPE,CLASSIFICATION_TYPE,NORAD_CAT_ID,ELEMENT_SET_NO,REV_AT_EPOCH,BSTAR,MEAN_MOTION_DOT,MEAN_MOTION_DDOT
GPS BIIF-10 (PRN 08),2015-033A,2026-06-12T05:38:30.006528,2.00556451,.01150517,53.9863,267.2908,30.2189,330.4612,0,U,40730,999,7989,0,-.23E-6,0
GSAT0205 (GALILEO 9),2015-045A,2026-05-24T07:17:44.873376,1.67409242,.00064058,54.9357,222.4171,263.0112,96.9692,0,U,40889,999,6656,0,-.14E-6,0
GSAT0206 (GALILEO 10),2015-045B,2026-06-11T14:11:42.643392,1.70473866,.00016772,54.9462,221.7590,340.3003,19.7849,0,U,40890,999,6694,0,.56E-6,0
GPS BIIF-11 (PRN 10),2015-062A,2026-06-09T07:11:53.760192,2.00566961,.01116543,56.9540,31.1152,231.1327,127.9172,0,U,41019,999,7767,0,-.64E-6,0
GSAT0209 (GALILEO 12),2015-079A,2026-06-11T18:13:38.595072,1.70473724,.00053697,55.8242,101.4109,341.4474,18.4942,0,U,41174,999,6468,0,.7E-7,0
GSAT0208 (GALILEO 11),2015-079B,2026-06-09T15:12:09.629856,1.70473549,.00048989,55.8212,101.4660,340.3551,19.5970,0,U,41175,999,6506,0,.22E-6,0
IRNSS-1E,2016-003A,2026-06-11T15:29:00.634272,1.00267652,.001795,33.2228,59.8306,179.1772,4.8789,0,U,41241,999,3802,0,-.308E-5,0
GPS BIIF-12 (PRN 32),2016-007A,2026-06-10T21:16:03.868896,2.00551975,.00960688,55.5202,89.7095,247.3778,111.5924,0,U,41328,999,7571,0,-.12E-6,0
COSMOS 2514 (751),2016-008A,2026-06-12T02:57:33.505344,2.13102572,.0011087,65.0249,313.1803,197.6409,162.3102,0,U,41330,999,8051,0,-.47E-6,0
BEIDOU-2 IGSO-6 (C13),2016-021A,2026-06-11T23:38:37.367808,1.00260204,.00570767,60.2181,38.0924,231.5598,78.5171,0,U,41434,999,3742,0,-.157E-5,0
IRNSS-1G,2016-027A,2026-06-12T06:58:15.684384,1.00268520,.00075179,5.1860,97.5860,353.7777,43.3802,0,U,41469,999,3713,0,-.321E-5,0
GSAT0211 (GALILEO 14),2016-030A,2026-06-12T02:29:26.267136,1.70473904,.00028755,55.0966,221.8349,323.9201,36.1548,0,U,41549,999,6258,0,.59E-6,0
GSAT0210 (GALILEO 13),2016-030B,2026-06-11T18:35:13.501248,1.70473848,.00036864,55.0962,221.8419,237.6945,122.3623,0,U,41550,999,6257,0,.57E-6,0
EUTELSAT 117 WEST B (WAAS/PRN 131),2016-038B,2026-06-12T05:47:58.674048,1.00269714,.00001772,0.0130,152.4141,305.1611,133.0012,0,U,41589,999,3661,0,.4E-7,0
GSAT0207 (GALILEO 15),2016-069A,2026-06-11T11:11:13.472160,1.70473579,.00053632,55.4954,101.2445,328.8179,31.1130,0,U,41859,999,5930,0,.9E-7,0
GSAT0212 (GALILEO 16),2016-069B,2026-06-10T03:30:48.933216,1.70473868,.00046789,55.4922,101.2762,355.7318,4.2331,0,U,41860,999,5953,0,.18E-6,0
GSAT0213 (GALILEO 17),2016-069C,2026-06-11T16:28:59.869920,1.70474158,.00050604,55.4953,101.2414,311.8034,48.1151,0,U,41861,999,5942,0,.7E-7,0
GSAT0214 (GALILEO 18),2016-069D,2026-06-08T21:36:08.572608,1.70473875,.0004328,55.4924,101.3112,318.2384,41.7019,0,U,41862,999,5950,0,.24E-6,0
SES-15 (WAAS/PRN 133),2017-026A,2026-06-12T06:37:10.269120,1.00268507,.00003862,0.0196,332.6908,70.2504,187.8018,0,U,42709,999,738,0,.75E-6,0
QZS-2 (QZSS/PRN 194),2017-028A,2026-06-09T12:56:43.810944,1.00285994,.07605811,39.4388,243.2674,269.1776,81.0235,0,U,42738,999,754,0,-.147E-5,0
QZS-3 (QZSS/PRN 199),2017-048A,2026-06-12T06:57:30.754656,1.00265367,.00024158,0.0252,184.7315,266.4892,40.7558,0,U,42917,999,3221,0,0,0
COSMOS 2522 (752),2017-055A,2026-06-10T02:01:05.325024,2.13102025,.00106792,64.0782,192.1263,240.0455,119.9210,0,U,42939,999,6782,0,.114E-5,0
QZS-4 (QZSS/PRN 195),2017-062A,2026-06-11T08:43:46.488864,1.00252284,.07452,40.1116,343.5575,271.6390,272.9173,0,U,42965,999,3174,0,-.318E-5,0
BEIDOU-3 M1 (C19),2017-069A,2026-06-10T03:39:44.209728,1.86231422,.00106003,56.6854,63.3171,324.5878,35.3649,0,U,43001,999,5847,0,-.5E-6,0
BEIDOU-3 M2 (C20),2017-069B,2026-06-11T03:57:56.500992,1.86230927,.0009248,56.6856,63.3198,349.7918,10.2118,0,U,43002,999,5848,0,-.53E-6,0
