NAVSTAR 74 (USA 262)    
1 40730U 15033A   26163.23506952 -.00000023  00000+0  00000+0 0  9990
2 40730  53.9863 267.2908 0115051  30.2189 330.4612  2.00556451 79890
GSAT0205 (GALILEO 9)    
1 40889U 15045A   26144.30399159 -.00000014  00000+0  00000+0 0  9994
2 40889  54.9357 222.4171 0006405 263.0112  96.9692  1.67409242 66562
GSAT0206 (GALILEO 10)   
1 40890U 15045B   26162.59146578  .00000056  00000+0  00000+0 0  9997
2 40890  54.9462 221.7590 0001677 340.3003  19.7849  1.70473866 66948
NAVSTAR 75 (USA 265)    
1 41019U 15062A   26160.29992778 -.00000064  00000+0  00000+0 0  9996
2 41019  56.9540  31.1152 0111654 231.1327 127.9172  2.00566961 77677
GSAT0209 (GALILEO 12)   
1 41174U 15079A   26162.75947448  .00000007  00000+0  00000+0 0  9999
2 41174  55.8242 101.4109 0005369 341.4474  18.4942  1.70473724 64688
GSAT0208 (GALILEO 11)   
1 41175U 15079B   26160.63344479  .00000022  00000+0  00000+0 0  9997
2 41175  55.8212 101.4660 0004898 340.3551  19.5970  1.70473549 65069
IRNSS-1E                
1 41241U 16003A   26162.64514623 -.00000308  00000+0  00000+0 0  9990
2 41241  33.2228  59.8306 0017950 179.1772   4.8789  1.00267652 38029
NAVSTAR 76 (USA 266)    
1 41328U 16007A   26161.88615589 -.00000012  00000+0  00000+0 0  9990
2 41328  55.5202  89.7095 0096068 247.3778 111.5924  2.00551975 75711
COSMOS 2514 [GLONASS-M] 
1 41330U 16008A   26163.12330446 -.00000047  00000+0  00000+0 0  9997
2 41330  65.0249 313.1803 0011087 197.6409 162.3102  2.13102572 80513
BEIDOU-2 IGSO-6         
1 41434U 16021A   26162.98515472 -.00000157  00000+0  00000+0 0  9996
2 41434  60.2181  38.0924 0057076 231.5598  78.5171  1.00260204 37420
IRNSS-1G                
1 41469U 16027A   26163.29045931 -.00000321  00000+0  00000+0 0  9996
2 41469   5.1860  97.5860 0007517 353.7777  43.3802  1.00268520 37138
GSAT0211 (GALILEO 14)   
1 41549U 16030A   26163.10377624  .00000059  00000+0  00000+0 0  9993
2 41549  55.0966 221.8349 0002875 323.9201  36.1548  1.70473904 62580
GSAT0210 (GALILEO 13)   
1 41550U 16030B   26162.77446182  .00000057  00000+0  00000+0 0  9991
2 41550  55.0962 221.8419 0003686 237.6945 122.3623  1.70473848 62571
EUTELSAT 117 WEST B     
1 41589U 16038B   26163.24165132  .00000004  00000+0  00000+0 0  9999
2 41589   0.0130 152.4141 0000177 305.1611 133.0012  1.00269714 36619
GSAT0207 (GALILEO 15)   
1 41859U 16069A   26162.46612815  .00000009  00000+0  00000+0 0  9996
2 41859  55.4954 101.2445 0005363 328.8179  31.1130  1.70473579 59302
GSAT0212 (GALILEO 16)   
1 41860U 16069B   26161.14639969  .00000018  00000+0  00000+0 0  9991
2 41860  55.4922 101.2762 0004678 355.7318   4.2331  1.70473868 59533
GSAT0213 (GALILEO 17)   
1 41861U 16069C   26162.68680405  .00000007  00000+0  00000+0 0  9991
2 41861  55.4953 101.2414 0005060 311.8034  48.1151  1.70474158 59424
GSAT0214 (GALILEO 18)   
1 41862U 16069D   26159.90009922  .00000024  00000+0  00000+0 0  9991
2 41862  55.4924 101.3112 0004328 318.2384  41.7019  1.70473875 59500
SES-15                  
1 42709U 17026A   26163.27581330  .00000075  00000+0  00000+0 0  9995
2 42709   0.0196 332.6908 0000386  70.2504 187.8018  1.00268507  7386
QZS-2 (MICHIBIKI-2)     
1 42738U 17028A   26160.53939596 -.00000147  00000+0  00000+0 0  9997
2 42738  39.4388 243.2674 0760581 269.1776  81.0235  1.00285994  7547
QZS-3 (MICHIBIKI-3)     
1 42917U 17048A   26163.28993929  .00000000  00000+0  00000+0 0  9990
2 42917   0.0252 184.7315 0002415 266.4892  40.7558  1.00265367 32219
COSMOS 2522 [GLONASS-M] 
1 42939U 17055A   26161.08408941  .00000114  00000+0  00000+0 0  9999
2 42939  64.0782 192.1263 0010679 240.0455 119.9210  2.13102025 67825
QZS-4 (MICHIBIKI-4)     
1 42965U 17062A   26162.36373251 -.00000318  00000+0  00000+0 0  9990
2 42965  40.1116 343.5575 0745200 271.6390 272.9173  1.00252284 31749
BEIDOU-3 M1             
1 43001U 17069A   26161.15259502 -.00000050  00000+0  00000+0 0  9990
2 43001  56.6854  63.3171 0010600 324.5878  35.3649  1.86231422 58472
BEIDOU-3 M2             
1 43002U 17069B   26162.16523728 -.00000053  00000+0  00000+0 0  9990
2 43002  56.6856  63.3198 0009248 349.7918  10.2118  1.86230927 58487
